KUIPER-00044            
1 64505U 25134F   25216.17349882  .00012809  00000+0  68166-3 0  9992
2 64505  51.8732 132.0093 0011464 269.4316  90.5348 15.15515375  7625
KUIPER-00046            
1 64506U 25134G   25216.91668981 -.00016239  00000+0 -74808-3 0  9992
2 64506  51.8722 127.4606 0008840 279.3931 352.9936 15.19157067  7284
KUIPER-00047            
1 64507U 25134H   25216.73040055  .00034160  00000+0  10123-2 0  9999
2 64507  51.8628 127.5161 0009795 281.7708  78.2178 15.34493427  7732
KUIPER-00048            
1 64508U 25134J   25216.15571374  .00030597  00000+0  85296-3 0  9993
2 64508  51.8769 129.7277 0002904 255.9225 104.1439 15.36504631  7655
KUIPER-00049            
1 64509U 25134K   25216.05023906  .00027246  00000+0  78150-3 0  9994
2 64509  51.8705 130.4970 0006925 257.6669 102.3542 15.35658522  7634
KUIPER-00050            
1 64510U 25134L   25216.77208632  .00035539  00000+0  10289-2 0  9998
2 64510  51.8699 127.0863 0006892 251.5527 108.4710 15.35230470  7744
KUIPER-00051            
1 64511U 25134M   25216.75912234  .00034654  00000+0  98526-3 0  9995
2 64511  51.8754 127.0075 0005141 247.3214 112.7229 15.35819995  7742
KUIPER-00052            
1 64512U 25134N   25216.91668981  .01197632  00000+0  19155-1 0  9997
2 64512  51.8783 125.2953 0003775 285.3827 336.5566 15.49922138  5852
