<?xml version="1.0" encoding="UTF-8"?>
<ndm xmlns:xsi="http://www.w3.org/2001/XMLSchema-instance" xsi:noNamespaceSchemaLocation="https://sanaregistry.org/r/ndmxml_unqualified/ndmxml-2.0.0-master-2.0.xsd">
<omm id="CCSDS_OMM_VERS" version="2.0">
<header><CREATION_DATE/><ORIGINATOR/></header><body><segment><metadata><OBJECT_NAME>KUIPER-00044</OBJECT_NAME><OBJECT_ID>2025-134F</OBJECT_ID><CENTER_NAME>EARTH</CENTER_NAME><REF_FRAME>TEME</REF_FRAME><TIME_SYSTEM>UTC</TIME_SYSTEM><MEAN_ELEMENT_THEORY>SGP4</MEAN_ELEMENT_THEORY></metadata><data><meanElements><EPOCH>2025-08-04T04:09:50.298048</EPOCH><MEAN_MOTION>15.15515375</MEAN_MOTION><ECCENTRICITY>.0011464</ECCENTRICITY><INCLINATION>51.8732</INCLINATION><RA_OF_ASC_NODE>132.0093</RA_OF_ASC_NODE><ARG_OF_PERICENTER>269.4316</ARG_OF_PERICENTER><MEAN_ANOMALY>90.5348</MEAN_ANOMALY></meanElements><tleParameters><EPHEMERIS_TYPE>0</EPHEMERIS_TYPE><CLASSIFICATION_TYPE>U</CLASSIFICATION_TYPE><NORAD_CAT_ID>64505</NORAD_CAT_ID><ELEMENT_SET_NO>999</ELEMENT_SET_NO><REV_AT_EPOCH>762</REV_AT_EPOCH><BSTAR>.68166E-3</BSTAR><MEAN_MOTION_DOT>.12809E-3</MEAN_MOTION_DOT><MEAN_MOTION_DDOT>0</MEAN_MOTION_DDOT></tleParameters></data></segment></body></omm>
<omm id="CCSDS_OMM_VERS" version="2.0">
<header><CREATION_DATE/><ORIGINATOR/></header><body><segment><metadata><OBJECT_NAME>KUIPER-00046</OBJECT_NAME><OBJECT_ID>2025-134G</OBJECT_ID><CENTER_NAME>EARTH</CENTER_NAME><REF_FRAME>TEME</REF_FRAME><TIME_SYSTEM>UTC</TIME_SYSTEM><MEAN_ELEMENT_THEORY>SGP4</MEAN_ELEMENT_THEORY></metadata><data><meanElements><EPOCH>2025-08-04T22:00:01.999584</EPOCH><MEAN_MOTION>15.19157067</MEAN_MOTION><ECCENTRICITY>.000884</ECCENTRICITY><INCLINATION>51.8722</INCLINATION><RA_OF_ASC_NODE>127.4606</RA_OF_ASC_NODE><ARG_OF_PERICENTER>279.3931</ARG_OF_PERICENTER><MEAN_ANOMALY>352.9936</MEAN_ANOMALY></meanElements><tleParameters><EPHEMERIS_TYPE>0</EPHEMERIS_TYPE><CLASSIFICATION_TYPE>U</CLASSIFICATION_TYPE><NORAD_CAT_ID>64506</NORAD_CAT_ID><ELEMENT_SET_NO>999</ELEMENT_SET_NO><REV_AT_EPOCH>728</REV_AT_EPOCH><BSTAR>-.74808E-3</BSTAR><MEAN_MOTION_DOT>-.16239E-3</MEAN_MOTION_DOT><MEAN_MOTION_DDOT>0</MEAN_MOTION_DDOT></tleParameters></data></segment></body></omm>
<omm id="CCSDS_OMM_VERS" version="2.0">
<header><CREATION_DATE/><ORIGINATOR/></header><body><segment><metadata><OBJECT_NAME>KUIPER-00047</OBJECT_NAME><OBJECT_ID>2025-134H</OBJECT_ID><CENTER_NAME>EARTH</CENTER_NAME><REF_FRAME>TEME</REF_FRAME><TIME_SYSTEM>UTC</TIME_SYSTEM><MEAN_ELEMENT_THEORY>SGP4</MEAN_ELEMENT_THEORY></metadata><data><meanElements><EPOCH>2025-08-04T17:31:46.607520</EPOCH><MEAN_MOTION>15.34493427</MEAN_MOTION><ECCENTRICITY>.0009795</ECCENTRICITY><INCLINATION>51.8628</INCLINATION><RA_OF_ASC_NODE>127.5161</RA_OF_ASC_NODE><ARG_OF_PERICENTER>281.7708</ARG_OF_PERICENTER><MEAN_ANOMALY>78.2178</MEAN_ANOMALY></meanElements><tleParameters><EPHEMERIS_TYPE>0</EPHEMERIS_TYPE><CLASSIFICATION_TYPE>U</CLASSIFICATION_TYPE><NORAD_CAT_ID>64507</NORAD_CAT_ID><ELEMENT_SET_NO>999</ELEMENT_SET_NO><REV_AT_EPOCH>773</REV_AT_EPOCH><BSTAR>.10123E-2</BSTAR><MEAN_MOTION_DOT>.3416E-3</MEAN_MOTION_DOT><MEAN_MOTION_DDOT>0</MEAN_MOTION_DDOT></tleParameters></data></segment></body></omm>
<omm id="CCSDS_OMM_VERS" version="2.0">
<header><CREATION_DATE/><ORIGINATOR/></header><body><segment><metadata><OBJECT_NAME>KUIPER-00048</OBJECT_NAME><OBJECT_ID>2025-134J</OBJECT_ID><CENTER_NAME>EARTH</CENTER_NAME><REF_FRAME>TEME</REF_FRAME><TIME_SYSTEM>UTC</TIME_SYSTEM><MEAN_ELEMENT_THEORY>SGP4</MEAN_ELEMENT_THEORY></metadata><data><meanElements><EPOCH>2025-08-04T03:44:13.667136</EPOCH><MEAN_MOTION>15.36504631</MEAN_MOTION><ECCENTRICITY>.0002904</ECCENTRICITY><INCLINATION>51.8769</INCLINATION><RA_OF_ASC_NODE>129.7277</RA_OF_ASC_NODE><ARG_OF_PERICENTER>255.9225</ARG_OF_PERICENTER><MEAN_ANOMALY>104.1439</MEAN_ANOMALY></meanElements><tleParameters><EPHEMERIS_TYPE>0</EPHEMERIS_TYPE><CLASSIFICATION_TYPE>U</CLASSIFICATION_TYPE><NORAD_CAT_ID>64508</NORAD_CAT_ID><ELEMENT_SET_NO>999</ELEMENT_SET_NO><REV_AT_EPOCH>765</REV_AT_EPOCH><BSTAR>.85296E-3</BSTAR><MEAN_MOTION_DOT>.30597E-3</MEAN_MOTION_DOT><MEAN_MOTION_DDOT>0</MEAN_MOTION_DDOT></tleParameters></data></segment></body></omm>
<omm id="CCSDS_OMM_VERS" version="2.0">
<header><CREATION_DATE/><ORIGINATOR/></header><body><segment><metadata><OBJECT_NAME>KUIPER-00049</OBJECT_NAME><OBJECT_ID>2025-134K</OBJECT_ID><CENTER_NAME>EARTH</CENTER_NAME><REF_FRAME>TEME</REF_FRAME><TIME_SYSTEM>UTC</TIME_SYSTEM><MEAN_ELEMENT_THEORY>SGP4</MEAN_ELEMENT_THEORY></metadata><data><meanElements><EPOCH>2025-08-04T01:12:20.654784</EPOCH><MEAN_MOTION>15.35658522</MEAN_MOTION><ECCENTRICITY>.0006925</ECCENTRICITY><INCLINATION>51.8705</INCLINATION><RA_OF_ASC_NODE>130.4970</RA_OF_ASC_NODE><ARG_OF_PERICENTER>257.6669</ARG_OF_PERICENTER><MEAN_ANOMALY>102.3542</MEAN_ANOMALY></meanElements><tleParameters><EPHEMERIS_TYPE>0</EPHEMERIS_TYPE><CLASSIFICATION_TYPE>U</CLASSIFICATION_TYPE><NORAD_CAT_ID>64509</NORAD_CAT_ID><ELEMENT_SET_NO>999</ELEMENT_SET_NO><REV_AT_EPOCH>763</REV_AT_EPOCH><BSTAR>.7815E-3</BSTAR><MEAN_MOTION_DOT>.27246E-3</MEAN_MOTION_DOT><MEAN_MOTION_DDOT>0</MEAN_MOTION_DDOT></tleParameters></data></segment></body></omm>
<omm id="CCSDS_OMM_VERS" version="2.0">
<header><CREATION_DATE/><ORIGINATOR/></header><body><segment><metadata><OBJECT_NAME>KUIPER-00050</OBJECT_NAME><OBJECT_ID>2025-134L</OBJECT_ID><CENTER_NAME>EARTH</CENTER_NAME><REF_FRAME>TEME</REF_FRAME><TIME_SYSTEM>UTC</TIME_SYSTEM><MEAN_ELEMENT_THEORY>SGP4</MEAN_ELEMENT_THEORY></metadata><data><meanElements><EPOCH>2025-08-04T18:31:48.258048</EPOCH><MEAN_MOTION>15.35230470</MEAN_MOTION><ECCENTRICITY>.0006892</ECCENTRICITY><INCLINATION>51.8699</INCLINATION><RA_OF_ASC_NODE>127.0863</RA_OF_ASC_NODE><ARG_OF_PERICENTER>251.5527</ARG_OF_PERICENTER><MEAN_ANOMALY>108.4710</MEAN_ANOMALY></meanElements><tleParameters><EPHEMERIS_TYPE>0</EPHEMERIS_TYPE><CLASSIFICATION_TYPE>U</CLASSIFICATION_TYPE><NORAD_CAT_ID>64510</NORAD_CAT_ID><ELEMENT_SET_NO>999</ELEMENT_SET_NO><REV_AT_EPOCH>774</REV_AT_EPOCH><BSTAR>.10289E-2</BSTAR><MEAN_MOTION_DOT>.35539E-3</MEAN_MOTION_DOT><MEAN_MOTION_DDOT>0</MEAN_MOTION_DDOT></tleParameters></data></segment></body></omm>
<omm id="CCSDS_OMM_VERS" version="2.0">
<header><CREATION_DATE/><ORIGINATOR/></header><body><segment><metadata><OBJECT_NAME>KUIPER-00051</OBJECT_NAME><OBJECT_ID>2025-134M</OBJECT_ID><CENTER_NAME>EARTH</CENTER_NAME><REF_FRAME>TEME</REF_FRAME><TIME_SYSTEM>UTC</TIME_SYSTEM><MEAN_ELEMENT_THEORY>SGP4</MEAN_ELEMENT_THEORY></metadata><data><meanElements><EPOCH>2025-08-04T18:13:08.170176</EPOCH><MEAN_MOTION>15.35819995</MEAN_MOTION><ECCENTRICITY>.0005141</ECCENTRICITY><INCLINATION>51.8754</INCLINATION><RA_OF_ASC_NODE>127.0075</RA_OF_ASC_NODE><ARG_OF_PERICENTER>247.3214</ARG_OF_PERICENTER><MEAN_ANOMALY>112.7229</MEAN_ANOMALY></meanElements><tleParameters><EPHEMERIS_TYPE>0</EPHEMERIS_TYPE><CLASSIFICATION_TYPE>U</CLASSIFICATION_TYPE><NORAD_CAT_ID>64511</NORAD_CAT_ID><ELEMENT_SET_NO>999</ELEMENT_SET_NO><REV_AT_EPOCH>774</REV_AT_EPOCH><BSTAR>.98526E-3</BSTAR><MEAN_MOTION_DOT>.34654E-3</MEAN_MOTION_DOT><MEAN_MOTION_DDOT>0</MEAN_MOTION_DDOT></tleParameters></data></segment></body></omm>
<omm id="CCSDS_OMM_VERS" version="2.0">
<header><CREATION_DATE/><ORIGINATOR/></header><body><segment><metadata><OBJECT_NAME>KUIPER-00052</OBJECT_NAME><OBJECT_ID>2025-134N</OBJECT_ID><CENTER_NAME>EARTH</CENTER_NAME><REF_FRAME>TEME</REF_FRAME><TIME_SYSTEM>UTC</TIME_SYSTEM><MEAN_ELEMENT_THEORY>SGP4</MEAN_ELEMENT_THEORY></metadata><data><meanElements><EPOCH>2025-08-04T22:00:01.999584</EPOCH><MEAN_MOTION>15.49922138</MEAN_MOTION><ECCENTRICITY>.0003775</ECCENTRICITY><INCLINATION>51.8783</INCLINATION><RA_OF_ASC_NODE>125.2953</RA_OF_ASC_NODE><ARG_OF_PERICENTER>285.3827</ARG_OF_PERICENTER><MEAN_ANOMALY>336.5566</MEAN_ANOMALY></meanElements><tleParameters><EPHEMERIS_TYPE>0</EPHEMERIS_TYPE><CLASSIFICATION_TYPE>U</CLASSIFICATION_TYPE><NORAD_CAT_ID>64512</NORAD_CAT_ID><ELEMENT_SET_NO>999</ELEMENT_SET_NO><REV_AT_EPOCH>585</REV_AT_EPOCH><BSTAR>.19155E-1</BSTAR><MEAN_MOTION_DOT>.1197632E-1</MEAN_MOTION_DOT><MEAN_MOTION_DDOT>0</MEAN_MOTION_DDOT></tleParameters></data></segment></body></omm>

</ndm>
